{
  "type": "FeatureCollection",
  "features": [
    {
      "type": "Feature",
      "properties": {
        "norad_id": 29869,
        "name": "FENGYUN 1C DEB",
        "group": "fengyun-1c-debris",
        "lat": 29.58597912730379,
        "lon": 97.09266590457663,
        "alt_km": 802.685506831478,
        "timestamp": "2025-12-07T20:38:14.335822+00:00",
        "meta_object_name": "FENGYUN 1C DEB",
        "meta_object_id": "1999-025FP",
        "meta_epoch": "2025-12-07T07:17:00.172608",
        "meta_mean_motion": 14.36861592,
        "meta_eccentricity": 0.00878906,
        "meta_inclination": 98.8728,
        "meta_ra_of_asc_node": 271.4311,
        "meta_arg_of_pericenter": 26.9399,
        "meta_mean_anomaly": 125.6237,
        "meta_ephemeris_type": 0,
        "meta_classification_type": "U",
        "meta_norad_cat_id": 29869,
        "meta_element_set_no": 999,
        "meta_rev_at_epoch": 98742,
        "meta_bstar": 0.00076698279,
        "meta_mean_motion_dot": 2.323e-05,
        "meta_mean_motion_ddot": 0,
        "tle_line1": "1 29869U 99025FP  25341.30347422  .00002323  00000+0  76698-3 0  9997",
        "tle_line2": "2 29869  98.8728 271.4311 0087890  26.9399 125.6237 14.36861592987428"
      },
      "geometry": {
        "type": "Point",
        "coordinates": [
          97.09266590457663,
          29.58597912730379
        ]
      }
    },
    {
      "type": "Feature",
      "properties": {
        "norad_id": 29870,
        "name": "FENGYUN 1C DEB",
        "group": "fengyun-1c-debris",
        "lat": -40.7674132691439,
        "lon": -39.70624702042503,
        "alt_km": 832.8083872989037,
        "timestamp": "2025-12-07T20:38:14.335832+00:00",
        "meta_object_name": "FENGYUN 1C DEB",
        "meta_object_id": "1999-025FQ",
        "meta_epoch": "2025-12-06T21:33:53.623584",
        "meta_mean_motion": 14.28977699,
        "meta_eccentricity": 0.01195243,
        "meta_inclination": 98.4592,
        "meta_ra_of_asc_node": 311.989,
        "meta_arg_of_pericenter": 209.6777,
        "meta_mean_anomaly": 205.1628,
        "meta_ephemeris_type": 0,
        "meta_classification_type": "U",
        "meta_norad_cat_id": 29870,
        "meta_element_set_no": 999,
        "meta_rev_at_epoch": 98510,
        "meta_bstar": 9.5852539e-05,
        "meta_mean_motion_dot": 2.18e-06,
        "meta_mean_motion_ddot": 0,
        "tle_line1": "1 29870U 99025FQ  25340.89853731  .00000218  00000+0  95853-4 0  9993",
        "tle_line2": "2 29870  98.4592 311.9890 0119524 209.6777 205.1628 14.28977699985105"
      },
      "geometry": {
        "type": "Point",
        "coordinates": [
          -39.70624702042503,
          -40.7674132691439
        ]
      }
    },
    {
      "type": "Feature",
      "properties": {
        "norad_id": 29871,
        "name": "FENGYUN 1C DEB",
        "group": "fengyun-1c-debris",
        "lat": 27.354155024575984,
        "lon": -69.95341897225795,
        "alt_km": 751.3752261593627,
        "timestamp": "2025-12-07T20:38:14.335842+00:00",
        "meta_object_name": "FENGYUN 1C DEB",
        "meta_object_id": "1999-025FR",
        "meta_epoch": "2025-12-07T07:57:34.839936",
        "meta_mean_motion": 14.42590195,
        "meta_eccentricity": 0.00584303,
        "meta_inclination": 98.9727,
        "meta_ra_of_asc_node": 294.1796,
        "meta_arg_of_pericenter": 123.2881,
        "meta_mean_anomaly": 43.4686,
        "meta_ephemeris_type": 0,
        "meta_classification_type": "U",
        "meta_norad_cat_id": 29871,
        "meta_element_set_no": 999,
        "meta_rev_at_epoch": 98623,
        "meta_bstar": 0.0014680156,
        "meta_mean_motion_dot": 4.929e-05,
        "meta_mean_motion_ddot": 0,
        "tle_line1": "1 29871U 99025FR  25341.33165324  .00004929  00000+0  14680-2 0  9998",
        "tle_line2": "2 29871  98.9727 294.1796 0058430 123.2881  43.4686 14.42590195986233"
      },
      "geometry": {
        "type": "Point",
        "coordinates": [
          -69.95341897225795,
          27.354155024575984
        ]
      }
    },
    {
      "type": "Feature",
      "properties": {
        "norad_id": 29872,
        "name": "FENGYUN 1C DEB",
        "group": "fengyun-1c-debris",
        "lat": -81.17744838304777,
        "lon": 106.9189230295212,
        "alt_km": 685.2738847222345,
        "timestamp": "2025-12-07T20:38:14.335852+00:00",
        "meta_object_name": "FENGYUN 1C DEB",
        "meta_object_id": "1999-025FS",
        "meta_epoch": "2025-12-07T07:42:00.558720",
        "meta_mean_motion": 14.38911723,
        "meta_eccentricity": 0.02356676,
        "meta_inclination": 98.3453,
        "meta_ra_of_asc_node": 357.4302,
        "meta_arg_of_pericenter": 329.9321,
        "meta_mean_anomaly": 28.8508,
        "meta_ephemeris_type": 0,
        "meta_classification_type": "U",
        "meta_norad_cat_id": 29872,
        "meta_element_set_no": 999,
        "meta_rev_at_epoch": 98514,
        "meta_bstar": 0.001055644,
        "meta_mean_motion_dot": 4.45e-05,
        "meta_mean_motion_ddot": 0,
        "tle_line1": "1 29872U 99025FS  25341.32083980  .00004450  00000+0  10556-2 0  9992",
        "tle_line2": "2 29872  98.3453 357.4302 0235667 329.9321  28.8508 14.38911723985141"
      },
      "geometry": {
        "type": "Point",
        "coordinates": [
          106.9189230295212,
          -81.17744838304777
        ]
      }
    },
    {
      "type": "Feature",
      "properties": {
        "norad_id": 29873,
        "name": "FENGYUN 1C DEB",
        "group": "fengyun-1c-debris",
        "lat": -15.968900145685186,
        "lon": -155.47674582561132,
        "alt_km": 949.2347531042287,
        "timestamp": "2025-12-07T20:38:14.335862+00:00",
        "meta_object_name": "FENGYUN 1C DEB",
        "meta_object_id": "1999-025FT",
        "meta_epoch": "2025-12-07T02:33:11.638944",
        "meta_mean_motion": 13.98143338,
        "meta_eccentricity": 0.00924713,
        "meta_inclination": 99.4428,
        "meta_ra_of_asc_node": 201.0187,
        "meta_arg_of_pericenter": 214.3967,
        "meta_mean_anomaly": 298.1516,
        "meta_ephemeris_type": 0,
        "meta_classification_type": "U",
        "meta_norad_cat_id": 29873,
        "meta_element_set_no": 999,
        "meta_rev_at_epoch": 96236,
        "meta_bstar": 0.00025615062,
        "meta_mean_motion_dot": 3.31e-06,
        "meta_mean_motion_ddot": 0,
        "tle_line1": "1 29873U 99025FT  25341.10638471  .00000331  00000+0  25615-3 0  9997",
        "tle_line2": "2 29873  99.4428 201.0187 0092471 214.3967 298.1516 13.98143338962362"
      },
      "geometry": {
        "type": "Point",
        "coordinates": [
          -155.47674582561132,
          -15.968900145685186
        ]
      }
    },
    {
      "type": "Feature",
      "properties": {
        "norad_id": 29874,
        "name": "FENGYUN 1C DEB",
        "group": "fengyun-1c-debris",
        "lat": 25.307612161246386,
        "lon": -125.05946405202965,
        "alt_km": 724.4871027519639,
        "timestamp": "2025-12-07T20:38:14.335872+00:00",
        "meta_object_name": "FENGYUN 1C DEB",
        "meta_object_id": "1999-025FU",
        "meta_epoch": "2025-12-07T04:25:37.369056",
        "meta_mean_motion": 14.28677862,
        "meta_eccentricity": 0.01054371,
        "meta_inclination": 98.3794,
        "meta_ra_of_asc_node": 238.2882,
        "meta_arg_of_pericenter": 6.8385,
        "meta_mean_anomaly": 146.523,
        "meta_ephemeris_type": 0,
        "meta_classification_type": "U",
        "meta_norad_cat_id": 29874,
        "meta_element_set_no": 999,
        "meta_rev_at_epoch": 96768,
        "meta_bstar": 0.0044922645,
        "meta_mean_motion_dot": 0.00011965,
        "meta_mean_motion_ddot": 0,
        "tle_line1": "1 29874U 99025FU  25341.18446029  .00011965  00000+0  44923-2 0  9999",
        "tle_line2": "2 29874  98.3794 238.2882 0105437   6.8385 146.5230 14.28677862967683"
      },
      "geometry": {
        "type": "Point",
        "coordinates": [
          -125.05946405202965,
          25.307612161246386
        ]
      }
    },
    {
      "type": "Feature",
      "properties": {
        "norad_id": 29875,
        "name": "FENGYUN 1C DEB",
        "group": "fengyun-1c-debris",
        "lat": -61.053109687176025,
        "lon": 48.996600292623185,
        "alt_km": 861.3608937570998,
        "timestamp": "2025-12-07T20:38:14.335882+00:00",
        "meta_object_name": "FENGYUN 1C DEB",
        "meta_object_id": "1999-025FV",
        "meta_epoch": "2025-12-07T02:31:47.604576",
        "meta_mean_motion": 14.24877225,
        "meta_eccentricity": 0.00832742,
        "meta_inclination": 98.4059,
        "meta_ra_of_asc_node": 32.7678,
        "meta_arg_of_pericenter": 79.584,
        "meta_mean_anomaly": 310.9793,
        "meta_ephemeris_type": 0,
        "meta_classification_type": "U",
        "meta_norad_cat_id": 29875,
        "meta_element_set_no": 999,
        "meta_rev_at_epoch": 98242,
        "meta_bstar": 5.7152906e-05,
        "meta_mean_motion_dot": 9.8e-07,
        "meta_mean_motion_ddot": 0,
        "tle_line1": "1 29875U 99025FV  25341.10541209  .00000098  00000+0  57153-4 0  9994",
        "tle_line2": "2 29875  98.4059  32.7678 0083274  79.5840 310.9793 14.24877225982427"
      },
      "geometry": {
        "type": "Point",
        "coordinates": [
          48.996600292623185,
          -61.053109687176025
        ]
      }
    }
  ]
}